start=new Date('2022-09-27T00:00:00.000Z').valueOf();
sats=[{"CENTER_NAME":"EARTH","PERIAPSIS":"538.542","TLE_LINE1":"1 52608U 22052L   22269.16243667 -.00001808  00000-0 -95540-4 0  9994","COUNTRY_CODE":"US","CLASSIFICATION_TYPE":"U","RA_OF_ASC_NODE":"177.8379","APOAPSIS":"541.036","REV_AT_EPOCH":"2056","EPOCH":"2022-09-26T03:53:54.528288","DECAY_DATE":null,"SEMIMAJOR_AXIS":"6917.924","MEAN_MOTION_DOT":"-0.00001808","PERIOD":"95.438","TIME_SYSTEM":"UTC","TLE_LINE2":"2 52608  53.2178 177.8379 0001802  48.9463 311.1684 15.08825755 20569","MEAN_ANOMALY":"311.1684","LAUNCH_DATE":"2022-05-14","OBJECT_TYPE":"PAYLOAD","MEAN_ELEMENT_THEORY":"SGP4","REF_FRAME":"TEME","RCS_SIZE":"LARGE","INCLINATION":"53.2178","OBJECT_NAME":"STARLINK-3979","SITE":"AFETR","GP_ID":"213545866","OBJECT_ID":"2022-052L","ELEMENT_SET_NO":"999","ARG_OF_PERICENTER":"48.9463","BSTAR":"-0.00009554000000","ECCENTRICITY":"0.00018020","FILE":"3584345","NORAD_CAT_ID":"52608","EPHEMERIS_TYPE":"0","MEAN_MOTION":"15.08825755","MEAN_MOTION_DDOT":"0.0000000000000"},{"CLASSIFICATION_TYPE":"U","COUNTRY_CODE":"US","TLE_LINE1":"1 52609U 22052M   22269.02354314 -.00000691  00000-0 -25294-4 0  9990","PERIAPSIS":"538.346","CENTER_NAME":"EARTH","APOAPSIS":"541.154","RA_OF_ASC_NODE":"178.4773","TLE_LINE2":"2 52609  53.2188 178.4773 0002029  38.0839 322.0296 15.08838475 20917","TIME_SYSTEM":"UTC","PERIOD":"95.438","MEAN_MOTION_DOT":"-0.00000691","SEMIMAJOR_AXIS":"6917.885","DECAY_DATE":null,"REV_AT_EPOCH":"2091","EPOCH":"2022-09-26T00:33:54.127296","OBJECT_TYPE":"PAYLOAD","LAUNCH_DATE":"2022-05-14","MEAN_ANOMALY":"322.0296","OBJECT_NAME":"STARLINK-3997","RCS_SIZE":"LARGE","INCLINATION":"53.2188","REF_FRAME":"TEME","MEAN_ELEMENT_THEORY":"SGP4","ARG_OF_PERICENTER":"38.0839","ELEMENT_SET_NO":"999","OBJECT_ID":"2022-052M","GP_ID":"213510173","SITE":"AFETR","ECCENTRICITY":"0.00020290","BSTAR":"-0.00002529400000","MEAN_MOTION":"15.08838475","MEAN_MOTION_DDOT":"0.0000000000000","EPHEMERIS_TYPE":"0","FILE":"3583841","NORAD_CAT_ID":"52609"},{"BSTAR":"-0.00013181000000","ECCENTRICITY":"0.00019500","FILE":"3584345","NORAD_CAT_ID":"52610","MEAN_MOTION":"15.08828476","MEAN_MOTION_DDOT":"0.0000000000000","EPHEMERIS_TYPE":"0","MEAN_ELEMENT_THEORY":"SGP4","REF_FRAME":"TEME","RCS_SIZE":"LARGE","INCLINATION":"53.2166","OBJECT_NAME":"STARLINK-3998","GP_ID":"213545720","SITE":"AFETR","OBJECT_ID":"2022-052N","ARG_OF_PERICENTER":"45.4210","ELEMENT_SET_NO":"999","DECAY_DATE":null,"REV_AT_EPOCH":"2053","EPOCH":"2022-09-26T11:15:43.038432","SEMIMAJOR_AXIS":"6917.916","PERIOD":"95.438","MEAN_MOTION_DOT":"-0.00002385","TLE_LINE2":"2 52610  53.2166 181.4607 0001950  45.4210 314.6941 15.08828476 20534","TIME_SYSTEM":"UTC","LAUNCH_DATE":"2022-05-14","MEAN_ANOMALY":"314.6941","OBJECT_TYPE":"PAYLOAD","CENTER_NAME":"EARTH","TLE_LINE1":"1 52610U 22052N   22269.46924813 -.00002385  00000-0 -13181-3 0  9990","PERIAPSIS":"538.432","CLASSIFICATION_TYPE":"U","COUNTRY_CODE":"US","APOAPSIS":"541.130","RA_OF_ASC_NODE":"181.4607"},{"CLASSIFICATION_TYPE":"U","COUNTRY_CODE":"US","TLE_LINE1":"1 52611U 22052P   22269.85933401 -.00000117  00000-0  10779-4 0  9998","PERIAPSIS":"538.560","CENTER_NAME":"EARTH","APOAPSIS":"540.919","RA_OF_ASC_NODE":"179.7104","TLE_LINE2":"2 52611  53.2178 179.7104 0001705  49.1803 310.9337 15.08841945 20597","TIME_SYSTEM":"UTC","PERIOD":"95.437","MEAN_MOTION_DOT":"-0.00000117","SEMIMAJOR_AXIS":"6917.874","DECAY_DATE":null,"EPOCH":"2022-09-26T20:37:26.458464","REV_AT_EPOCH":"2059","OBJECT_TYPE":"PAYLOAD","LAUNCH_DATE":"2022-05-14","MEAN_ANOMALY":"310.9337","OBJECT_NAME":"STARLINK-3980","RCS_SIZE":"LARGE","INCLINATION":"53.2178","REF_FRAME":"TEME","MEAN_ELEMENT_THEORY":"SGP4","ARG_OF_PERICENTER":"49.1803","ELEMENT_SET_NO":"999","OBJECT_ID":"2022-052P","GP_ID":"213602406","SITE":"AFETR","ECCENTRICITY":"0.00017050","BSTAR":"0.00001077900000","MEAN_MOTION":"15.08841945","MEAN_MOTION_DDOT":"0.0000000000000","EPHEMERIS_TYPE":"0","NORAD_CAT_ID":"52611","FILE":"3584555"},{"OBJECT_TYPE":"PAYLOAD","LAUNCH_DATE":"2022-05-14","MEAN_ANOMALY":"312.5965","TLE_LINE2":"2 52612  53.2192 175.4856 0001495  47.5154 312.5965 15.08824909 20640","TIME_SYSTEM":"UTC","PERIOD":"95.439","MEAN_MOTION_DOT":"0.00000281","SEMIMAJOR_AXIS":"6917.927","DECAY_DATE":null,"REV_AT_EPOCH":"2064","EPOCH":"2022-09-26T16:31:41.802528","APOAPSIS":"540.826","RA_OF_ASC_NODE":"175.4856","CLASSIFICATION_TYPE":"U","COUNTRY_CODE":"US","TLE_LINE1":"1 52612U 22052Q   22269.68867827  .00000281  00000-0  35764-4 0  9990","PERIAPSIS":"538.757","CENTER_NAME":"EARTH","MEAN_MOTION_DDOT":"0.0000000000000","MEAN_MOTION":"15.08824909","EPHEMERIS_TYPE":"0","FILE":"3584555","NORAD_CAT_ID":"52612","ECCENTRICITY":"0.00014950","BSTAR":"0.00003576400000","ARG_OF_PERICENTER":"47.5154","ELEMENT_SET_NO":"999","OBJECT_ID":"2022-052Q","GP_ID":"213601914","SITE":"AFETR","OBJECT_NAME":"STARLINK-4002","RCS_SIZE":"LARGE","INCLINATION":"53.2192","REF_FRAME":"TEME","MEAN_ELEMENT_THEORY":"SGP4"},{"BSTAR":"0.00002613700000","ECCENTRICITY":"0.00014710","FILE":"3583843","NORAD_CAT_ID":"52613","EPHEMERIS_TYPE":"0","MEAN_MOTION_DDOT":"0.0000000000000","MEAN_MOTION":"15.08844919","MEAN_ELEMENT_THEORY":"SGP4","REF_FRAME":"TEME","RCS_SIZE":"LARGE","INCLINATION":"53.2166","OBJECT_NAME":"STARLINK-3921","SITE":"AFETR","GP_ID":"213510294","OBJECT_ID":"2022-052R","ELEMENT_SET_NO":"999","ARG_OF_PERICENTER":"70.3542","EPOCH":"2022-09-26T00:12:39.135456","REV_AT_EPOCH":"2104","DECAY_DATE":null,"SEMIMAJOR_AXIS":"6917.865","MEAN_MOTION_DOT":"0.00000128","PERIOD":"95.437","TIME_SYSTEM":"UTC","TLE_LINE2":"2 52613  53.2166 168.5333 0001471  70.3542 289.7608 15.08844919 21041","MEAN_ANOMALY":"289.7608","LAUNCH_DATE":"2022-05-14","OBJECT_TYPE":"PAYLOAD","CENTER_NAME":"EARTH","PERIAPSIS":"538.713","TLE_LINE1":"1 52613U 22052R   22269.00878629  .00000128  00000-0  26137-4 0  9993","COUNTRY_CODE":"US","CLASSIFICATION_TYPE":"U","RA_OF_ASC_NODE":"168.5333","APOAPSIS":"540.748"},{"BSTAR":"-0.00008726400000","ECCENTRICITY":"0.00017130","EPHEMERIS_TYPE":"0","MEAN_MOTION_DDOT":"0.0000000000000","MEAN_MOTION":"15.08836777","FILE":"3584193","NORAD_CAT_ID":"52614","RCS_SIZE":"LARGE","INCLINATION":"53.2151","OBJECT_NAME":"STARLINK-3982","MEAN_ELEMENT_THEORY":"SGP4","REF_FRAME":"TEME","OBJECT_ID":"2022-052S","ELEMENT_SET_NO":"999","ARG_OF_PERICENTER":"55.9271","SITE":"AFETR","GP_ID":"213518189","MEAN_MOTION_DOT":"-0.00001677","PERIOD":"95.438","TIME_SYSTEM":"UTC","TLE_LINE2":"2 52614  53.2151 166.7297 0001713  55.9271 304.1884 15.08836777 21100","REV_AT_EPOCH":"2110","EPOCH":"2022-09-26T09:50:16.470240","DECAY_DATE":null,"SEMIMAJOR_AXIS":"6917.890","OBJECT_TYPE":"PAYLOAD","MEAN_ANOMALY":"304.1884","LAUNCH_DATE":"2022-05-14","COUNTRY_CODE":"US","CLASSIFICATION_TYPE":"U","CENTER_NAME":"EARTH","PERIAPSIS":"538.570","TLE_LINE1":"1 52614U 22052S   22269.40991285 -.00001677  00000-0 -87264-4 0  9992","RA_OF_ASC_NODE":"166.7297","APOAPSIS":"540.940"},{"TIME_SYSTEM":"UTC","TLE_LINE2":"2 52615  53.2183 181.5117 0001255  93.0389 267.0746 15.08829264 20900","MEAN_MOTION_DOT":"-0.00002058","PERIOD":"95.438","SEMIMAJOR_AXIS":"6917.913","EPOCH":"2022-09-26T10:59:49.858080","REV_AT_EPOCH":"2090","DECAY_DATE":null,"OBJECT_TYPE":"PAYLOAD","MEAN_ANOMALY":"267.0746","LAUNCH_DATE":"2022-05-14","COUNTRY_CODE":"US","CLASSIFICATION_TYPE":"U","PERIAPSIS":"538.910","TLE_LINE1":"1 52615U 22052T   22269.45821595 -.00002058  00000-0 -11130-3 0  9996","CENTER_NAME":"EARTH","RA_OF_ASC_NODE":"181.5117","APOAPSIS":"540.646","ECCENTRICITY":"0.00012550","BSTAR":"-0.00011130000000","EPHEMERIS_TYPE":"0","MEAN_MOTION":"15.08829264","MEAN_MOTION_DDOT":"0.0000000000000","FILE":"3584358","NORAD_CAT_ID":"52615","OBJECT_NAME":"STARLINK-4011","RCS_SIZE":"LARGE","INCLINATION":"53.2183","REF_FRAME":"TEME","MEAN_ELEMENT_THEORY":"SGP4","ELEMENT_SET_NO":"999","ARG_OF_PERICENTER":"93.0389","OBJECT_ID":"2022-052T","SITE":"AFETR","GP_ID":"213572978"},{"RA_OF_ASC_NODE":"164.6895","APOAPSIS":"541.114","PERIAPSIS":"538.471","TLE_LINE1":"1 52616U 22052U   22269.86624726 -.00002256  00000-0 -12373-3 0  9999","CENTER_NAME":"EARTH","COUNTRY_CODE":"US","CLASSIFICATION_TYPE":"U","MEAN_ANOMALY":"318.2248","LAUNCH_DATE":"2022-05-14","OBJECT_TYPE":"PAYLOAD","SEMIMAJOR_AXIS":"6917.927","REV_AT_EPOCH":"2080","EPOCH":"2022-09-26T20:47:23.763264","DECAY_DATE":null,"TIME_SYSTEM":"UTC","TLE_LINE2":"2 52616  53.2171 164.6895 0001910  41.8890 318.2248 15.08824677 20807","MEAN_MOTION_DOT":"-0.00002256","PERIOD":"95.439","SITE":"AFETR","GP_ID":"213601499","ELEMENT_SET_NO":"999","ARG_OF_PERICENTER":"41.8890","OBJECT_ID":"2022-052U","REF_FRAME":"TEME","MEAN_ELEMENT_THEORY":"SGP4","OBJECT_NAME":"STARLINK-4015","RCS_SIZE":"LARGE","INCLINATION":"53.2171","NORAD_CAT_ID":"52616","FILE":"3584555","EPHEMERIS_TYPE":"0","MEAN_MOTION":"15.08824677","MEAN_MOTION_DDOT":"0.0000000000000","ECCENTRICITY":"0.00019100","BSTAR":"-0.00012373000000"},{"TIME_SYSTEM":"UTC","TLE_LINE2":"2 52617  53.2165 166.4344 0001638  65.0927 295.0234 15.07204680 20730","MEAN_MOTION_DOT":"-0.00000234","PERIOD":"95.541","SEMIMAJOR_AXIS":"6922.883","EPOCH":"2022-09-26T10:49:18.365664","REV_AT_EPOCH":"2073","DECAY_DATE":null,"OBJECT_TYPE":"PAYLOAD","MEAN_ANOMALY":"295.0234","LAUNCH_DATE":"2022-05-14","COUNTRY_CODE":"US","CLASSIFICATION_TYPE":"U","PERIAPSIS":"543.614","TLE_LINE1":"1 52617U 22052V   22269.45090701 -.00000234  00000-0  32606-5 0  9991","CENTER_NAME":"EARTH","RA_OF_ASC_NODE":"166.4344","APOAPSIS":"545.882","ECCENTRICITY":"0.00016380","BSTAR":"0.00000326060000","EPHEMERIS_TYPE":"0","MEAN_MOTION":"15.07204680","MEAN_MOTION_DDOT":"0.0000000000000","FILE":"3584345","NORAD_CAT_ID":"52617","OBJECT_NAME":"STARLINK-3996","RCS_SIZE":"LARGE","INCLINATION":"53.2165","REF_FRAME":"TEME","MEAN_ELEMENT_THEORY":"SGP4","ELEMENT_SET_NO":"999","ARG_OF_PERICENTER":"65.0927","OBJECT_ID":"2022-052V","SITE":"AFETR","GP_ID":"213546115"}];
